{
    "links": {
        "self": "http://www.neowsapp.com/rest/v1/neo/2484850?api_key=iIulBulltgU6a56xZRHN4H3l9WmuAYTsLGpBGhQ2"
    },
    "id": "2484850",
    "neo_reference_id": "2484850",
    "name": "484850 (2009 HF88)",
    "designation": "484850",
    "nasa_jpl_url": "http://ssd.jpl.nasa.gov/sbdb.cgi?sstr=2484850",
    "absolute_magnitude_h": 19.3,
    "estimated_diameter": {
        "kilometers": {
            "estimated_diameter_min": 0.3669061375,
            "estimated_diameter_max": 0.8204270649
        },
        "meters": {
            "estimated_diameter_min": 366.9061375314,
            "estimated_diameter_max": 820.4270648822
        },
        "miles": {
            "estimated_diameter_min": 0.2279848336,
            "estimated_diameter_max": 0.5097895857
        },
        "feet": {
            "estimated_diameter_min": 1203.7603322587,
            "estimated_diameter_max": 2691.6899315481
        }
    },
    "is_potentially_hazardous_asteroid": false,
    "close_approach_data": [
        {
            "close_approach_date": "1914-03-30",
            "close_approach_date_full": "1914-Mar-30 23:58",
            "epoch_date_close_approach": -1759536120000,
            "relative_velocity": {
                "kilometers_per_second": "11.7605974107",
                "kilometers_per_hour": "42338.1506784912",
                "miles_per_hour": "26307.2803479769"
            },
            "miss_distance": {
                "astronomical": "0.4817249474",
                "lunar": "187.3910045386",
                "kilometers": "72065026.056902038",
                "miles": "44779130.7558746044"
            },
            "orbiting_body": "Earth"
        },
        {
            "close_approach_date": "2013-03-26",
            "close_approach_date_full": "2013-Mar-26 00:53",
            "epoch_date_close_approach": 1364259180000,
            "relative_velocity": {
                "kilometers_per_second": "12.9270161612",
                "kilometers_per_hour": "46537.2581803704",
                "miles_per_hour": "28916.4424510196"
            },
            "miss_distance": {
                "astronomical": "0.4896329604",
                "lunar": "190.4672215956",
                "kilometers": "73248047.957634348",
                "miles": "45514226.4781480824"
            },
            "orbiting_body": "Earth"
        },
        {
            "close_approach_date": "2042-04-01",
            "close_approach_date_full": "2042-Apr-01 04:10",
            "epoch_date_close_approach": 2279938200000,
            "relative_velocity": {
                "kilometers_per_second": "11.8089279724",
                "kilometers_per_hour": "42512.1407007293",
                "miles_per_hour": "26415.390981517"
            },
            "miss_distance": {
                "astronomical": "0.4990558846",
                "lunar": "194.1327391094",
                "kilometers": "74657697.347125802",
                "miles": "46390141.9920359876"
            },
            "orbiting_body": "Earth"
        },
        {
            "close_approach_date": "2141-03-28",
            "close_approach_date_full": "2141-Mar-28 08:29",
            "epoch_date_close_approach": 5403745740000,
            "relative_velocity": {
                "kilometers_per_second": "12.9358087188",
                "kilometers_per_hour": "46568.9113878388",
                "miles_per_hour": "28936.1105231824"
            },
            "miss_distance": {
                "astronomical": "0.4697095181",
                "lunar": "182.7170025409",
                "kilometers": "70267543.426486447",
                "miles": "43662226.8408570886"
            },
            "orbiting_body": "Earth"
        },
        {
            "close_approach_date": "2174-04-03",
            "close_approach_date_full": "2174-Apr-03 18:36",
            "epoch_date_close_approach": 6445679760000,
            "relative_velocity": {
                "kilometers_per_second": "12.2136781665",
                "kilometers_per_hour": "43969.2413992844",
                "miles_per_hour": "27320.776690572"
            },
            "miss_distance": {
                "astronomical": "0.4993241459",
                "lunar": "194.2370927551",
                "kilometers": "74697828.666209233",
                "miles": "46415078.4373960954"
            },
            "orbiting_body": "Earth"
        }
    ],
    "orbital_data": {
        "orbit_id": "24",
        "orbit_determination_date": "2020-10-16 08:10:40",
        "first_observation_date": "2009-04-30",
        "last_observation_date": "2020-10-15",
        "data_arc_in_days": 4186,
        "observations_used": 67,
        "orbit_uncertainty": "0",
        "minimum_orbit_intersection": ".474637",
        "jupiter_tisserand_invariant": "3.118",
        "epoch_osculation": "2459000.5",
        "eccentricity": ".5107827478540562",
        "semi_major_axis": "2.576329643589883",
        "inclination": "24.83016158265848",
        "ascending_node_longitude": "222.5207653161281",
        "orbital_period": "1510.429895008735",
        "perihelion_distance": "1.260384908859181",
        "perihelion_argument": "283.0721814190321",
        "aphelion_distance": "3.892274378320584",
        "perihelion_time": "2459360.615024684433",
        "mean_anomaly": "274.1691982429637",
        "mean_motion": ".2383427401626728",
        "equinox": "J2000",
        "orbit_class": {
            "orbit_class_type": "AMO",
            "orbit_class_description": "Near-Earth asteroid orbits similar to that of 1221 Amor",
            "orbit_class_range": "1.017 AU < q (perihelion) < 1.3 AU"
        }
    },
    "is_sentry_object": false
}